STARLINK-5389
1 54835U 22177R   26090.83335647  .00804475  00000+0  29881-1 0  9996
2 54835  43.0005  10.9455 0001488 243.7647   8.4958 15.24217719  5768
STARLINK-6213
1 56891U 23083R   26090.83335647  .00801633  00000+0  29774-1 0  9991
2 56891  42.9992 319.5000 0001602 266.8250 121.5650 15.24229703  5811
